[
    {
        "city": "Al Jizah",
        "area_code": "2",
        "dialing_code": "+20 2"
    },
    {
        "city": "Alexandria",
        "area_code": "3",
        "dialing_code": "+20 3"
    },
    {
        "city": "Assiut",
        "area_code": "88",
        "dialing_code": "+20 88"
    },
    {
        "city": "Aswan",
        "area_code": "97",
        "dialing_code": "+20 97"
    },
    {
        "city": "Asyut",
        "area_code": "88",
        "dialing_code": "+20 88"
    },
    {
        "city": "Benha",
        "area_code": "13",
        "dialing_code": "+20 13"
    },
    {
        "city": "Cairo",
        "area_code": "2",
        "dialing_code": "+20 2"
    },
    {
        "city": "Dakahlia",
        "area_code": "50",
        "dialing_code": "+20 50"
    },
    {
        "city": "Damanhour",
        "area_code": "45",
        "dialing_code": "+20 45"
    },
    {
        "city": "El Arish",
        "area_code": "68",
        "dialing_code": "+20 68"
    },
    {
        "city": "El Mahallah (El Kubra)",
        "area_code": "40",
        "dialing_code": "+20 40"
    },
    {
        "city": "El Tor",
        "area_code": "69",
        "dialing_code": "+20 69"
    },
    {
        "city": "Hurghada",
        "area_code": "65",
        "dialing_code": "+20 65"
    },
    {
        "city": "Ismailia",
        "area_code": "64",
        "dialing_code": "+20 64"
    },
    {
        "city": "Luxor",
        "area_code": "95",
        "dialing_code": "+20 95"
    },
    {
        "city": "Port Said",
        "area_code": "66",
        "dialing_code": "+20 66"
    },
    {
        "city": "Qina",
        "area_code": "96",
        "dialing_code": "+20 96"
    },
    {
        "city": "Shebin El Korn",
        "area_code": "48",
        "dialing_code": "+20 48"
    },
    {
        "city": "Shibin el Kom",
        "area_code": "48",
        "dialing_code": "+20 48"
    },
    {
        "city": "Shibîn el Kôm",
        "area_code": "48",
        "dialing_code": "+20 48"
    },
    {
        "city": "Sohag",
        "area_code": "93",
        "dialing_code": "+20 93"
    },
    {
        "city": "Suez",
        "area_code": "62",
        "dialing_code": "+20 62"
    },
    {
        "city": "Tanta",
        "area_code": "40",
        "dialing_code": "+20 40"
    },
    {
        "city": "Zagazig",
        "area_code": "55",
        "dialing_code": "+20 55"
    }
]