[
    {
        "city": "Bafaty",
        "area_code": "41XXXX",
        "dialing_code": "+245 41XXXX"
    },
    {
        "city": "Bafatý",
        "area_code": "41XXXX",
        "dialing_code": "+245 41XXXX"
    },
    {
        "city": "Bambadinca",
        "area_code": "41XXXX",
        "dialing_code": "+245 41XXXX"
    },
    {
        "city": "Bedanda",
        "area_code": "61XXXX",
        "dialing_code": "+245 61XXXX"
    },
    {
        "city": "Bigene",
        "area_code": "32XXXX",
        "dialing_code": "+245 32XXXX"
    },
    {
        "city": "Bissau",
        "area_code": "",
        "dialing_code": "+245"
    },
    {
        "city": "Bissory",
        "area_code": "32XXXX",
        "dialing_code": "+245 32XXXX"
    },
    {
        "city": "Bissorý",
        "area_code": "32XXXX",
        "dialing_code": "+245 32XXXX"
    },
    {
        "city": "Bolama",
        "area_code": "81XXXX",
        "dialing_code": "+245 81XXXX"
    },
    {
        "city": "Bry",
        "area_code": "25XXXX",
        "dialing_code": "+245 25XXXX"
    },
    {
        "city": "Brý",
        "area_code": "25XXXX",
        "dialing_code": "+245 25XXXX"
    },
    {
        "city": "Buba",
        "area_code": "61XXXX",
        "dialing_code": "+245 61XXXX"
    },
    {
        "city": "Bubaque",
        "area_code": "82XXXX",
        "dialing_code": "+245 82XXXX"
    },
    {
        "city": "Bula",
        "area_code": "33XXXX",
        "dialing_code": "+245 33XXXX"
    },
    {
        "city": "Cacheu",
        "area_code": "92XXXX",
        "dialing_code": "+245 92XXXX"
    },
    {
        "city": "Cacine",
        "area_code": "61XXXX",
        "dialing_code": "+245 61XXXX"
    },
    {
        "city": "Canchungo",
        "area_code": "91XXXX",
        "dialing_code": "+245 91XXXX"
    },
    {
        "city": "Caravela",
        "area_code": "83XXXX",
        "dialing_code": "+245 83XXXX"
    },
    {
        "city": "Catio",
        "area_code": "61XXXX",
        "dialing_code": "+245 61XXXX"
    },
    {
        "city": "Farim",
        "area_code": "35XXXX",
        "dialing_code": "+245 35XXXX"
    },
    {
        "city": "Fulacunda",
        "area_code": "61XXXX",
        "dialing_code": "+245 61XXXX"
    },
    {
        "city": "Gaby",
        "area_code": "51XXXX",
        "dialing_code": "+245 51XXXX"
    },
    {
        "city": "Gabý",
        "area_code": "51XXXX",
        "dialing_code": "+245 51XXXX"
    },
    {
        "city": "Ingore",
        "area_code": "33XXXX",
        "dialing_code": "+245 33XXXX"
    },
    {
        "city": "Mansoa",
        "area_code": "31XXXX",
        "dialing_code": "+245 31XXXX"
    },
    {
        "city": "Manssaby",
        "area_code": "31XXXX",
        "dialing_code": "+245 31XXXX"
    },
    {
        "city": "Manssabý",
        "area_code": "31XXXX",
        "dialing_code": "+245 31XXXX"
    },
    {
        "city": "Pirada",
        "area_code": "53XXXX",
        "dialing_code": "+245 53XXXX"
    },
    {
        "city": "Quebo",
        "area_code": "62XXXX",
        "dialing_code": "+245 62XXXX"
    },
    {
        "city": "S. Domingos",
        "area_code": "93XXXX",
        "dialing_code": "+245 93XXXX"
    },
    {
        "city": "S. Luzia",
        "area_code": "22XXXX",
        "dialing_code": "+245 22XXXX"
    },
    {
        "city": "Sonaco",
        "area_code": "52XXXX",
        "dialing_code": "+245 52XXXX"
    },
    {
        "city": "Tite",
        "area_code": "61XXXX",
        "dialing_code": "+245 61XXXX"
    },
    {
        "city": "Uno",
        "area_code": "84XXXX",
        "dialing_code": "+245 84XXXX"
    }
]