[
    {
        "city": "Boke",
        "area_code": "31",
        "dialing_code": "+224 31"
    },
    {
        "city": "Boky",
        "area_code": "31",
        "dialing_code": "+224 31"
    },
    {
        "city": "Boké",
        "area_code": "31",
        "dialing_code": "+224 31"
    },
    {
        "city": "Boký",
        "area_code": "31",
        "dialing_code": "+224 31"
    },
    {
        "city": "Boussoura",
        "area_code": "46",
        "dialing_code": "+224 46"
    },
    {
        "city": "Conakry",
        "area_code": "47",
        "dialing_code": "+224 47"
    },
    {
        "city": "Dalaba",
        "area_code": "69",
        "dialing_code": "+224 69"
    },
    {
        "city": "Faranah",
        "area_code": "81",
        "dialing_code": "+224 81"
    },
    {
        "city": "Fria",
        "area_code": "24",
        "dialing_code": "+224 24"
    },
    {
        "city": "Gueckedou",
        "area_code": "97",
        "dialing_code": "+224 97"
    },
    {
        "city": "Guyckydou",
        "area_code": "97",
        "dialing_code": "+224 97"
    },
    {
        "city": "Guéckédou",
        "area_code": "97",
        "dialing_code": "+224 97"
    },
    {
        "city": "Guýckýdou",
        "area_code": "97",
        "dialing_code": "+224 97"
    },
    {
        "city": "Kamsar",
        "area_code": "32",
        "dialing_code": "+224 32"
    },
    {
        "city": "Kankan",
        "area_code": "71",
        "dialing_code": "+224 71"
    },
    {
        "city": "Kindia",
        "area_code": "61",
        "dialing_code": "+224 61"
    },
    {
        "city": "Kissidougou",
        "area_code": "98",
        "dialing_code": "+224 98"
    },
    {
        "city": "Labe",
        "area_code": "51",
        "dialing_code": "+224 51"
    },
    {
        "city": "Laby",
        "area_code": "51",
        "dialing_code": "+224 51"
    },
    {
        "city": "Labé",
        "area_code": "51",
        "dialing_code": "+224 51"
    },
    {
        "city": "Labý",
        "area_code": "51",
        "dialing_code": "+224 51"
    },
    {
        "city": "Macenta",
        "area_code": "94",
        "dialing_code": "+224 94"
    },
    {
        "city": "Mamou",
        "area_code": "68",
        "dialing_code": "+224 68"
    },
    {
        "city": "N'Zerekore",
        "area_code": "91",
        "dialing_code": "+224 91"
    },
    {
        "city": "N'Zyrykory",
        "area_code": "91",
        "dialing_code": "+224 91"
    },
    {
        "city": "N'Zérékoré",
        "area_code": "91",
        "dialing_code": "+224 91"
    },
    {
        "city": "N'Zýrýkorý",
        "area_code": "91",
        "dialing_code": "+224 91"
    },
    {
        "city": "Pita",
        "area_code": "53",
        "dialing_code": "+224 53"
    },
    {
        "city": "Sangoya",
        "area_code": "42",
        "dialing_code": "+224 42"
    },
    {
        "city": "Telimele",
        "area_code": "613",
        "dialing_code": "+224 613"
    },
    {
        "city": "Tylimyly",
        "area_code": "613",
        "dialing_code": "+224 613"
    },
    {
        "city": "Télimélé",
        "area_code": "613",
        "dialing_code": "+224 613"
    },
    {
        "city": "Týlimýlý",
        "area_code": "613",
        "dialing_code": "+224 613"
    }
]