[
    {
        "city": "Anmer",
        "area_code": "25",
        "dialing_code": "+254 25"
    },
    {
        "city": "Bungoma",
        "area_code": "55",
        "dialing_code": "+254 55"
    },
    {
        "city": "Diani",
        "area_code": "12",
        "dialing_code": "+254 12"
    },
    {
        "city": "Eldoret",
        "area_code": "53",
        "dialing_code": "+254 53"
    },
    {
        "city": "Embu",
        "area_code": "68",
        "dialing_code": "+254 68"
    },
    {
        "city": "Garissa",
        "area_code": "46",
        "dialing_code": "+254 46"
    },
    {
        "city": "Gigiri",
        "area_code": "20",
        "dialing_code": "+254 20"
    },
    {
        "city": "Homa Bay",
        "area_code": "59",
        "dialing_code": "+254 59"
    },
    {
        "city": "Kabete",
        "area_code": "20",
        "dialing_code": "+254 20"
    },
    {
        "city": "Kajiado",
        "area_code": "45",
        "dialing_code": "+254 45"
    },
    {
        "city": "Kakamega",
        "area_code": "56",
        "dialing_code": "+254 56"
    },
    {
        "city": "Karuri",
        "area_code": "66",
        "dialing_code": "+254 66"
    },
    {
        "city": "Kericho",
        "area_code": "52",
        "dialing_code": "+254 52"
    },
    {
        "city": "Kilfi",
        "area_code": "12",
        "dialing_code": "+254 12"
    },
    {
        "city": "Kisii",
        "area_code": "58",
        "dialing_code": "+254 58"
    },
    {
        "city": "Kisumu",
        "area_code": "57",
        "dialing_code": "+254 57"
    },
    {
        "city": "Kitale",
        "area_code": "54",
        "dialing_code": "+254 54"
    },
    {
        "city": "Kwale",
        "area_code": "40",
        "dialing_code": "+254 40"
    },
    {
        "city": "Lamu",
        "area_code": "12",
        "dialing_code": "+254 12"
    },
    {
        "city": "Machakos",
        "area_code": "44",
        "dialing_code": "+254 44"
    },
    {
        "city": "Malindi",
        "area_code": "42",
        "dialing_code": "+254 42"
    },
    {
        "city": "Marsabit",
        "area_code": "69",
        "dialing_code": "+254 69"
    },
    {
        "city": "Meru",
        "area_code": "64",
        "dialing_code": "+254 64"
    },
    {
        "city": "Mobile Phones - Celtel",
        "area_code": "733",
        "dialing_code": "+254 733"
    },
    {
        "city": "Mobile Phones - Safaricom",
        "area_code": "722",
        "dialing_code": "+254 722"
    },
    {
        "city": "Mombasa",
        "area_code": "41",
        "dialing_code": "+254 41"
    },
    {
        "city": "Murang'a",
        "area_code": "60",
        "dialing_code": "+254 60"
    },
    {
        "city": "Nairobi",
        "area_code": "20",
        "dialing_code": "+254 20"
    },
    {
        "city": "Naivasha",
        "area_code": "50",
        "dialing_code": "+254 50"
    },
    {
        "city": "Nakuru",
        "area_code": "51",
        "dialing_code": "+254 51"
    },
    {
        "city": "Nanyuki",
        "area_code": "62",
        "dialing_code": "+254 62"
    },
    {
        "city": "Nyahururu",
        "area_code": "65",
        "dialing_code": "+254 65"
    },
    {
        "city": "Nyeri",
        "area_code": "61",
        "dialing_code": "+254 61"
    },
    {
        "city": "Thika",
        "area_code": "67",
        "dialing_code": "+254 67"
    },
    {
        "city": "Uthiru",
        "area_code": "20",
        "dialing_code": "+254 20"
    },
    {
        "city": "Voi",
        "area_code": "43",
        "dialing_code": "+254 43"
    }
]