[
    {
        "city": "Abasar",
        "area_code": "37",
        "dialing_code": "+36 37"
    },
    {
        "city": "Baja",
        "area_code": "79",
        "dialing_code": "+36 79"
    },
    {
        "city": "Balassagyarmat",
        "area_code": "35",
        "dialing_code": "+36 35"
    },
    {
        "city": "Balatonaliga",
        "area_code": "84",
        "dialing_code": "+36 84"
    },
    {
        "city": "Berettyóújfalu",
        "area_code": "54",
        "dialing_code": "+36 54"
    },
    {
        "city": "Berettyýýjfalu",
        "area_code": "54",
        "dialing_code": "+36 54"
    },
    {
        "city": "Biatorbágy",
        "area_code": "23",
        "dialing_code": "+36 23"
    },
    {
        "city": "Biatorbýgy",
        "area_code": "23",
        "dialing_code": "+36 23"
    },
    {
        "city": "Budapest",
        "area_code": "1",
        "dialing_code": "+36 1"
    },
    {
        "city": "Budapest/lorinc",
        "area_code": "1",
        "dialing_code": "+36 1"
    },
    {
        "city": "Békéscsaba",
        "area_code": "66",
        "dialing_code": "+36 66"
    },
    {
        "city": "Býkýscsaba",
        "area_code": "66",
        "dialing_code": "+36 66"
    },
    {
        "city": "Cegléd",
        "area_code": "53",
        "dialing_code": "+36 53"
    },
    {
        "city": "Ceglýd",
        "area_code": "53",
        "dialing_code": "+36 53"
    },
    {
        "city": "Debrecen",
        "area_code": "52",
        "dialing_code": "+36 52"
    },
    {
        "city": "Dorgicse",
        "area_code": "80",
        "dialing_code": "+36 80"
    },
    {
        "city": "Dunaújváros",
        "area_code": "25",
        "dialing_code": "+36 25"
    },
    {
        "city": "Dunaújvárosi",
        "area_code": "25",
        "dialing_code": "+36 25"
    },
    {
        "city": "Dunaýjvýros",
        "area_code": "25",
        "dialing_code": "+36 25"
    },
    {
        "city": "Eger",
        "area_code": "36",
        "dialing_code": "+36 36"
    },
    {
        "city": "Esztergom",
        "area_code": "33",
        "dialing_code": "+36 33"
    },
    {
        "city": "Fertoboz",
        "area_code": "99",
        "dialing_code": "+36 99"
    },
    {
        "city": "Gyor",
        "area_code": "96",
        "dialing_code": "+36 96"
    },
    {
        "city": "Gyöngyös",
        "area_code": "37",
        "dialing_code": "+36 37"
    },
    {
        "city": "Györ",
        "area_code": "96",
        "dialing_code": "+36 96"
    },
    {
        "city": "Gyýngyýs",
        "area_code": "37",
        "dialing_code": "+36 37"
    },
    {
        "city": "Gödöllo",
        "area_code": "28",
        "dialing_code": "+36 28"
    },
    {
        "city": "Gýdýllo",
        "area_code": "28",
        "dialing_code": "+36 28"
    },
    {
        "city": "Jászberény",
        "area_code": "57",
        "dialing_code": "+36 57"
    },
    {
        "city": "Jýszberýny",
        "area_code": "57",
        "dialing_code": "+36 57"
    },
    {
        "city": "Kaposvár",
        "area_code": "82",
        "dialing_code": "+36 82"
    },
    {
        "city": "Kaposvýr",
        "area_code": "82",
        "dialing_code": "+36 82"
    },
    {
        "city": "Karcag",
        "area_code": "59",
        "dialing_code": "+36 59"
    },
    {
        "city": "Kazincbarcika",
        "area_code": "48",
        "dialing_code": "+36 48"
    },
    {
        "city": "Kecskemét",
        "area_code": "76",
        "dialing_code": "+36 76"
    },
    {
        "city": "Kecskemýt",
        "area_code": "76",
        "dialing_code": "+36 76"
    },
    {
        "city": "Keszthely",
        "area_code": "83",
        "dialing_code": "+36 83"
    },
    {
        "city": "Kiskorös",
        "area_code": "78",
        "dialing_code": "+36 78"
    },
    {
        "city": "Kiskorýs",
        "area_code": "78",
        "dialing_code": "+36 78"
    },
    {
        "city": "Kiskunhalas",
        "area_code": "77",
        "dialing_code": "+36 77"
    },
    {
        "city": "Kisvárda",
        "area_code": "45",
        "dialing_code": "+36 45"
    },
    {
        "city": "Kisvýrda",
        "area_code": "45",
        "dialing_code": "+36 45"
    },
    {
        "city": "Komlo",
        "area_code": "72",
        "dialing_code": "+36 72"
    },
    {
        "city": "Marcali",
        "area_code": "85",
        "dialing_code": "+36 85"
    },
    {
        "city": "Mezokövesd",
        "area_code": "49",
        "dialing_code": "+36 49"
    },
    {
        "city": "Mezokývesd",
        "area_code": "49",
        "dialing_code": "+36 49"
    },
    {
        "city": "Miskolc",
        "area_code": "46",
        "dialing_code": "+36 46"
    },
    {
        "city": "Mohács",
        "area_code": "69",
        "dialing_code": "+36 69"
    },
    {
        "city": "Mohýcs",
        "area_code": "69",
        "dialing_code": "+36 69"
    },
    {
        "city": "Monor",
        "area_code": "29",
        "dialing_code": "+36 29"
    },
    {
        "city": "Mátészalka",
        "area_code": "44",
        "dialing_code": "+36 44"
    },
    {
        "city": "Mýtýszalka",
        "area_code": "44",
        "dialing_code": "+36 44"
    },
    {
        "city": "Nagykanizsa",
        "area_code": "93",
        "dialing_code": "+36 93"
    },
    {
        "city": "Nyíregyháza",
        "area_code": "42",
        "dialing_code": "+36 42"
    },
    {
        "city": "Nyýregyhýza",
        "area_code": "42",
        "dialing_code": "+36 42"
    },
    {
        "city": "Orosháza",
        "area_code": "68",
        "dialing_code": "+36 68"
    },
    {
        "city": "Oroshýza",
        "area_code": "68",
        "dialing_code": "+36 68"
    },
    {
        "city": "Paks",
        "area_code": "75",
        "dialing_code": "+36 75"
    },
    {
        "city": "Pecsvarad",
        "area_code": "72",
        "dialing_code": "+36 72"
    },
    {
        "city": "Pápa",
        "area_code": "89",
        "dialing_code": "+36 89"
    },
    {
        "city": "Pécs",
        "area_code": "72",
        "dialing_code": "+36 72"
    },
    {
        "city": "Pýcs",
        "area_code": "72",
        "dialing_code": "+36 72"
    },
    {
        "city": "Pýpa",
        "area_code": "89",
        "dialing_code": "+36 89"
    },
    {
        "city": "Salgótarján",
        "area_code": "32",
        "dialing_code": "+36 32"
    },
    {
        "city": "Salgýtarjýn",
        "area_code": "32",
        "dialing_code": "+36 32"
    },
    {
        "city": "Siófok",
        "area_code": "84",
        "dialing_code": "+36 84"
    },
    {
        "city": "Siýfok",
        "area_code": "84",
        "dialing_code": "+36 84"
    },
    {
        "city": "Sopron",
        "area_code": "99",
        "dialing_code": "+36 99"
    },
    {
        "city": "Szeged",
        "area_code": "62",
        "dialing_code": "+36 62"
    },
    {
        "city": "Szekszárd",
        "area_code": "74",
        "dialing_code": "+36 74"
    },
    {
        "city": "Szekszýrd",
        "area_code": "74",
        "dialing_code": "+36 74"
    },
    {
        "city": "Szentendre",
        "area_code": "26",
        "dialing_code": "+36 26"
    },
    {
        "city": "Szentes",
        "area_code": "63",
        "dialing_code": "+36 63"
    },
    {
        "city": "Szerencs",
        "area_code": "47",
        "dialing_code": "+36 47"
    },
    {
        "city": "Szigetszentmiklós",
        "area_code": "24",
        "dialing_code": "+36 24"
    },
    {
        "city": "Szigetszentmiklýs",
        "area_code": "24",
        "dialing_code": "+36 24"
    },
    {
        "city": "Szigetvár",
        "area_code": "73",
        "dialing_code": "+36 73"
    },
    {
        "city": "Szigetvýr",
        "area_code": "73",
        "dialing_code": "+36 73"
    },
    {
        "city": "Szolnok",
        "area_code": "56",
        "dialing_code": "+36 56"
    },
    {
        "city": "Szombathely",
        "area_code": "94",
        "dialing_code": "+36 94"
    },
    {
        "city": "Székesfehérvár",
        "area_code": "22",
        "dialing_code": "+36 22"
    },
    {
        "city": "Szýkesfehýrvýr",
        "area_code": "22",
        "dialing_code": "+36 22"
    },
    {
        "city": "Sárvár",
        "area_code": "95",
        "dialing_code": "+36 95"
    },
    {
        "city": "Sýrvýr",
        "area_code": "95",
        "dialing_code": "+36 95"
    },
    {
        "city": "Tapolca",
        "area_code": "87",
        "dialing_code": "+36 87"
    },
    {
        "city": "Tatabánya",
        "area_code": "34",
        "dialing_code": "+36 34"
    },
    {
        "city": "Tatabýnya",
        "area_code": "34",
        "dialing_code": "+36 34"
    },
    {
        "city": "Vacs",
        "area_code": "27",
        "dialing_code": "+36 27"
    },
    {
        "city": "Veszprém",
        "area_code": "88",
        "dialing_code": "+36 88"
    },
    {
        "city": "Veszprým",
        "area_code": "88",
        "dialing_code": "+36 88"
    },
    {
        "city": "Vác",
        "area_code": "27",
        "dialing_code": "+36 27"
    },
    {
        "city": "Výc",
        "area_code": "27",
        "dialing_code": "+36 27"
    },
    {
        "city": "Zalaegerszeg",
        "area_code": "92",
        "dialing_code": "+36 92"
    },
    {
        "city": "Ózd",
        "area_code": "48",
        "dialing_code": "+36 48"
    },
    {
        "city": "ýzd",
        "area_code": "48",
        "dialing_code": "+36 48"
    }
]