[
    {
        "city": "Akershus",
        "area_code": "67",
        "dialing_code": "+47 67"
    },
    {
        "city": "Arendal",
        "area_code": "37",
        "dialing_code": "+47 37"
    },
    {
        "city": "Aust-Agder",
        "area_code": "37",
        "dialing_code": "+47 37"
    },
    {
        "city": "Bergen",
        "area_code": "5",
        "dialing_code": "+47 5"
    },
    {
        "city": "Buskerud",
        "area_code": "32",
        "dialing_code": "+47 32"
    },
    {
        "city": "Finnmark",
        "area_code": "78",
        "dialing_code": "+47 78"
    },
    {
        "city": "Halden",
        "area_code": "69",
        "dialing_code": "+47 69"
    },
    {
        "city": "Haugesund",
        "area_code": "5",
        "dialing_code": "+47 5"
    },
    {
        "city": "Hedmark",
        "area_code": "62",
        "dialing_code": "+47 62"
    },
    {
        "city": "Hordaland",
        "area_code": "56",
        "dialing_code": "+47 56"
    },
    {
        "city": "Larvik",
        "area_code": "33",
        "dialing_code": "+47 33"
    },
    {
        "city": "Moss",
        "area_code": "69",
        "dialing_code": "+47 69"
    },
    {
        "city": "Myre og Romsdal",
        "area_code": "71",
        "dialing_code": "+47 71"
    },
    {
        "city": "Mýre og Romsdal",
        "area_code": "71",
        "dialing_code": "+47 71"
    },
    {
        "city": "Nord-Tryndelag",
        "area_code": "74",
        "dialing_code": "+47 74"
    },
    {
        "city": "Nord-Trýndelag",
        "area_code": "74",
        "dialing_code": "+47 74"
    },
    {
        "city": "Nordland",
        "area_code": "76",
        "dialing_code": "+47 76"
    },
    {
        "city": "Oppland",
        "area_code": "61",
        "dialing_code": "+47 61"
    },
    {
        "city": "Oslo",
        "area_code": "2",
        "dialing_code": "+47 2"
    },
    {
        "city": "Porsgrunn",
        "area_code": "35",
        "dialing_code": "+47 35"
    },
    {
        "city": "Rogaland",
        "area_code": "52",
        "dialing_code": "+47 52"
    },
    {
        "city": "Sogn",
        "area_code": "57",
        "dialing_code": "+47 57"
    },
    {
        "city": "Syr-Tryndelag",
        "area_code": "73",
        "dialing_code": "+47 73"
    },
    {
        "city": "Sýr-Trýndelag",
        "area_code": "73",
        "dialing_code": "+47 73"
    },
    {
        "city": "Telemark",
        "area_code": "35",
        "dialing_code": "+47 35"
    },
    {
        "city": "Troms",
        "area_code": "77",
        "dialing_code": "+47 77"
    },
    {
        "city": "Vest-Agder",
        "area_code": "38",
        "dialing_code": "+47 38"
    },
    {
        "city": "Vestfold County",
        "area_code": "33",
        "dialing_code": "+47 33"
    },
    {
        "city": "ystfold",
        "area_code": "69",
        "dialing_code": "+47 69"
    },
    {
        "city": "ýstfold",
        "area_code": "69",
        "dialing_code": "+47 69"
    }
]