[
    {
        "city": "Asuncion",
        "area_code": "21",
        "dialing_code": "+595 21"
    },
    {
        "city": "Asunci√≥n",
        "area_code": "21",
        "dialing_code": "+595 21"
    },
    {
        "city": "Ayolas",
        "area_code": "72",
        "dialing_code": "+595 72"
    },
    {
        "city": "Capiata",
        "area_code": "28",
        "dialing_code": "+595 28"
    },
    {
        "city": "Concepcion",
        "area_code": "31",
        "dialing_code": "+595 31"
    },
    {
        "city": "Coronel Bogado",
        "area_code": "74",
        "dialing_code": "+595 74"
    },
    {
        "city": "Coronel Oviedo",
        "area_code": "521",
        "dialing_code": "+595 521"
    },
    {
        "city": "Encarnacion",
        "area_code": "71",
        "dialing_code": "+595 71"
    },
    {
        "city": "Hernandarias",
        "area_code": "63",
        "dialing_code": "+595 63"
    },
    {
        "city": "Ita",
        "area_code": "24",
        "dialing_code": "+595 24"
    },
    {
        "city": "Pedro J Caballero",
        "area_code": "36",
        "dialing_code": "+595 36"
    },
    {
        "city": "Pilar",
        "area_code": "86",
        "dialing_code": "+595 86"
    },
    {
        "city": "San Antonio",
        "area_code": "27",
        "dialing_code": "+595 27"
    },
    {
        "city": "San Ignacio",
        "area_code": "82",
        "dialing_code": "+595 82"
    },
    {
        "city": "Stroessner: Ciudad Pte.",
        "area_code": "61",
        "dialing_code": "+595 61"
    },
    {
        "city": "Villarrica",
        "area_code": "541",
        "dialing_code": "+595 541"
    },
    {
        "city": "Villeta",
        "area_code": "25",
        "dialing_code": "+595 25"
    }
]