[
    {
        "city": "Akita",
        "area_code": "96",
        "dialing_code": "+81 96"
    },
    {
        "city": "Aomori",
        "area_code": "177",
        "dialing_code": "+81 177"
    },
    {
        "city": "Asahikawa",
        "area_code": "166",
        "dialing_code": "+81 166"
    },
    {
        "city": "Chiba",
        "area_code": "43",
        "dialing_code": "+81 43"
    },
    {
        "city": "Choshi",
        "area_code": "43",
        "dialing_code": "+81 43"
    },
    {
        "city": "Fukuoka",
        "area_code": "92",
        "dialing_code": "+81 92"
    },
    {
        "city": "Funabashi",
        "area_code": "47",
        "dialing_code": "+81 47"
    },
    {
        "city": "Gifu",
        "area_code": "58",
        "dialing_code": "+81 58"
    },
    {
        "city": "Hachioji",
        "area_code": "42",
        "dialing_code": "+81 42"
    },
    {
        "city": "Hakodate",
        "area_code": "138",
        "dialing_code": "+81 138"
    },
    {
        "city": "Himeji",
        "area_code": "79",
        "dialing_code": "+81 79"
    },
    {
        "city": "Hiroshima",
        "area_code": "82",
        "dialing_code": "+81 82"
    },
    {
        "city": "Ichikawa",
        "area_code": "47",
        "dialing_code": "+81 47"
    },
    {
        "city": "Kagoshima",
        "area_code": "99",
        "dialing_code": "+81 99"
    },
    {
        "city": "Kanazawa",
        "area_code": "76",
        "dialing_code": "+81 76"
    },
    {
        "city": "Kasugai",
        "area_code": "568",
        "dialing_code": "+81 568"
    },
    {
        "city": "Kawaguchi",
        "area_code": "482",
        "dialing_code": "+81 482"
    },
    {
        "city": "Kawasaki",
        "area_code": "44",
        "dialing_code": "+81 44"
    },
    {
        "city": "Kishiwada",
        "area_code": "724",
        "dialing_code": "+81 724"
    },
    {
        "city": "Kitakyushu",
        "area_code": "93",
        "dialing_code": "+81 93"
    },
    {
        "city": "Kobe",
        "area_code": "78",
        "dialing_code": "+81 78"
    },
    {
        "city": "Kofu",
        "area_code": "552",
        "dialing_code": "+81 552"
    },
    {
        "city": "Kumamoto",
        "area_code": "96",
        "dialing_code": "+81 96"
    },
    {
        "city": "Kurashiki",
        "area_code": "86",
        "dialing_code": "+81 86"
    },
    {
        "city": "Kure",
        "area_code": "823",
        "dialing_code": "+81 823"
    },
    {
        "city": "Kurume",
        "area_code": "942",
        "dialing_code": "+81 942"
    },
    {
        "city": "Kyoto",
        "area_code": "75",
        "dialing_code": "+81 75"
    },
    {
        "city": "Machida",
        "area_code": "427",
        "dialing_code": "+81 427"
    },
    {
        "city": "Matsudo",
        "area_code": "47",
        "dialing_code": "+81 47"
    },
    {
        "city": "Matsumoto",
        "area_code": "263",
        "dialing_code": "+81 263"
    },
    {
        "city": "Matsuyama",
        "area_code": "89",
        "dialing_code": "+81 89"
    },
    {
        "city": "Mito",
        "area_code": "292",
        "dialing_code": "+81 292"
    },
    {
        "city": "Miyazaki",
        "area_code": "985",
        "dialing_code": "+81 985"
    },
    {
        "city": "Morioka",
        "area_code": "196",
        "dialing_code": "+81 196"
    },
    {
        "city": "Nagano",
        "area_code": "262",
        "dialing_code": "+81 262"
    },
    {
        "city": "Nagaoka",
        "area_code": "258",
        "dialing_code": "+81 258"
    },
    {
        "city": "Nagasaki",
        "area_code": "95",
        "dialing_code": "+81 95"
    },
    {
        "city": "Nagoya",
        "area_code": "52",
        "dialing_code": "+81 52"
    },
    {
        "city": "Naha",
        "area_code": "98",
        "dialing_code": "+81 98"
    },
    {
        "city": "Niigata",
        "area_code": "25",
        "dialing_code": "+81 25"
    },
    {
        "city": "Ogaki",
        "area_code": "584",
        "dialing_code": "+81 584"
    },
    {
        "city": "Okayama",
        "area_code": "862",
        "dialing_code": "+81 862"
    },
    {
        "city": "Okazaki",
        "area_code": "564",
        "dialing_code": "+81 564"
    },
    {
        "city": "Okinawa",
        "area_code": "98",
        "dialing_code": "+81 98"
    },
    {
        "city": "Omiya",
        "area_code": "48",
        "dialing_code": "+81 48"
    },
    {
        "city": "Omuta",
        "area_code": "9445",
        "dialing_code": "+81 9445"
    },
    {
        "city": "Osaka",
        "area_code": "66",
        "dialing_code": "+81 66"
    },
    {
        "city": "Sakai",
        "area_code": "72",
        "dialing_code": "+81 72"
    },
    {
        "city": "Sapporo",
        "area_code": "11",
        "dialing_code": "+81 11"
    },
    {
        "city": "Sasebo",
        "area_code": "956",
        "dialing_code": "+81 956"
    },
    {
        "city": "Sendai",
        "area_code": "22",
        "dialing_code": "+81 22"
    },
    {
        "city": "Shimonoseki",
        "area_code": "832",
        "dialing_code": "+81 832"
    },
    {
        "city": "Shizuoka",
        "area_code": "54",
        "dialing_code": "+81 54"
    },
    {
        "city": "Takamatsu",
        "area_code": "878",
        "dialing_code": "+81 878"
    },
    {
        "city": "Takaoka",
        "area_code": "766",
        "dialing_code": "+81 766"
    },
    {
        "city": "Tokyo",
        "area_code": "3",
        "dialing_code": "+81 3"
    },
    {
        "city": "Toyama",
        "area_code": "764",
        "dialing_code": "+81 764"
    },
    {
        "city": "Toyonaka",
        "area_code": "6",
        "dialing_code": "+81 6"
    },
    {
        "city": "Toyota",
        "area_code": "565",
        "dialing_code": "+81 565"
    },
    {
        "city": "Tsu",
        "area_code": "592",
        "dialing_code": "+81 592"
    },
    {
        "city": "Ube",
        "area_code": "836",
        "dialing_code": "+81 836"
    },
    {
        "city": "Uji",
        "area_code": "774",
        "dialing_code": "+81 774"
    },
    {
        "city": "Utsunomiya",
        "area_code": "28",
        "dialing_code": "+81 28"
    },
    {
        "city": "Wakayama",
        "area_code": "73",
        "dialing_code": "+81 73"
    },
    {
        "city": "Yamaguchi",
        "area_code": "839",
        "dialing_code": "+81 839"
    },
    {
        "city": "Yao",
        "area_code": "729",
        "dialing_code": "+81 729"
    },
    {
        "city": "Yokkaichi",
        "area_code": "748",
        "dialing_code": "+81 748"
    },
    {
        "city": "Yokohama",
        "area_code": "45",
        "dialing_code": "+81 45"
    }
]