[
    {
        "city": "Aguadilla",
        "area_code": "939",
        "dialing_code": "+1 939"
    },
    {
        "city": "Arecibo",
        "area_code": "939",
        "dialing_code": "+1 939"
    },
    {
        "city": "Bayamon",
        "area_code": "939",
        "dialing_code": "+1 939"
    },
    {
        "city": "Bayam√≥n",
        "area_code": "939",
        "dialing_code": "+1 939"
    },
    {
        "city": "Caguas",
        "area_code": "939",
        "dialing_code": "+1 939"
    },
    {
        "city": "Carolina",
        "area_code": "939",
        "dialing_code": "+1 939"
    },
    {
        "city": "Guaynabo",
        "area_code": "939",
        "dialing_code": "+1 939"
    },
    {
        "city": "Juana Diaz",
        "area_code": "939",
        "dialing_code": "+1 939"
    },
    {
        "city": "Mayaguez",
        "area_code": "939",
        "dialing_code": "+1 939"
    },
    {
        "city": "Ponce",
        "area_code": "939",
        "dialing_code": "+1 939"
    },
    {
        "city": "San Juan",
        "area_code": "939",
        "dialing_code": "+1 939"
    }
]