[
    {
        "city": "Bristol",
        "area_code": "423",
        "dialing_code": "+1 423"
    },
    {
        "city": "Chattanooga",
        "area_code": "423",
        "dialing_code": "+1 423"
    },
    {
        "city": "Clarksville",
        "area_code": "931",
        "dialing_code": "+1 931"
    },
    {
        "city": "Cleveland",
        "area_code": "216",
        "dialing_code": "+1 216"
    },
    {
        "city": "Collierville",
        "area_code": "901",
        "dialing_code": "+1 901"
    },
    {
        "city": "Columbia",
        "area_code": "803",
        "dialing_code": "+1 803"
    },
    {
        "city": "Cookeville",
        "area_code": "931",
        "dialing_code": "+1 931"
    },
    {
        "city": "Dyersburg",
        "area_code": "731",
        "dialing_code": "+1 731"
    },
    {
        "city": "Franklin",
        "area_code": "615",
        "dialing_code": "+1 615"
    },
    {
        "city": "Gallatin",
        "area_code": "615",
        "dialing_code": "+1 615"
    },
    {
        "city": "Goodlettsville",
        "area_code": "615",
        "dialing_code": "+1 615"
    },
    {
        "city": "Greeneville",
        "area_code": "423",
        "dialing_code": "+1 423"
    },
    {
        "city": "Hendersonville",
        "area_code": "615",
        "dialing_code": "+1 615"
    },
    {
        "city": "Jackson",
        "area_code": "601",
        "dialing_code": "+1 601"
    },
    {
        "city": "Johnson City",
        "area_code": "423",
        "dialing_code": "+1 423"
    },
    {
        "city": "Kingsport",
        "area_code": "423",
        "dialing_code": "+1 423"
    },
    {
        "city": "Knoxville",
        "area_code": "865",
        "dialing_code": "+1 865"
    },
    {
        "city": "Lebanon",
        "area_code": "615",
        "dialing_code": "+1 615"
    },
    {
        "city": "Memphis",
        "area_code": "901",
        "dialing_code": "+1 901"
    },
    {
        "city": "Morristown",
        "area_code": "423",
        "dialing_code": "+1 423"
    },
    {
        "city": "Mount Juliet",
        "area_code": "615",
        "dialing_code": "+1 615"
    },
    {
        "city": "Murfreesboro",
        "area_code": "615",
        "dialing_code": "+1 615"
    },
    {
        "city": "Nashville",
        "area_code": "615",
        "dialing_code": "+1 615"
    },
    {
        "city": "Sevierville",
        "area_code": "865",
        "dialing_code": "+1 865"
    },
    {
        "city": "Shelbyville",
        "area_code": "931",
        "dialing_code": "+1 931"
    },
    {
        "city": "Smyrna",
        "area_code": "615",
        "dialing_code": "+1 615"
    },
    {
        "city": "Spring Hill",
        "area_code": "352",
        "dialing_code": "+1 352"
    },
    {
        "city": "Springfield",
        "area_code": "417",
        "dialing_code": "+1 417"
    },
    {
        "city": "Tullahoma",
        "area_code": "931",
        "dialing_code": "+1 931"
    }
]