[
    {
        "city": "Arborg",
        "area_code": "204",
        "dialing_code": "+1 204"
    },
    {
        "city": "Beausejour",
        "area_code": "204",
        "dialing_code": "+1 204"
    },
    {
        "city": "Brandon",
        "area_code": "204",
        "dialing_code": "+1 204"
    },
    {
        "city": "Cartwright",
        "area_code": "204",
        "dialing_code": "+1 204"
    },
    {
        "city": "Churchill",
        "area_code": "204",
        "dialing_code": "+1 204"
    },
    {
        "city": "Cranberry Portage",
        "area_code": "204",
        "dialing_code": "+1 204"
    },
    {
        "city": "Dauphin",
        "area_code": "204",
        "dialing_code": "+1 204"
    },
    {
        "city": "Flin Flon",
        "area_code": "204",
        "dialing_code": "+1 204"
    },
    {
        "city": "Gillam",
        "area_code": "204",
        "dialing_code": "+1 204"
    },
    {
        "city": "Gimli",
        "area_code": "204",
        "dialing_code": "+1 204"
    },
    {
        "city": "Lynn Lake",
        "area_code": "204",
        "dialing_code": "+1 204"
    },
    {
        "city": "Melita",
        "area_code": "204",
        "dialing_code": "+1 204"
    },
    {
        "city": "Minnedosa",
        "area_code": "204",
        "dialing_code": "+1 204"
    },
    {
        "city": "Nelson House",
        "area_code": "204",
        "dialing_code": "+1 204"
    },
    {
        "city": "Riverton",
        "area_code": "204",
        "dialing_code": "+1 204"
    },
    {
        "city": "Selkirk",
        "area_code": "204",
        "dialing_code": "+1 204"
    },
    {
        "city": "Souris",
        "area_code": "204",
        "dialing_code": "+1 204"
    },
    {
        "city": "Stonewall",
        "area_code": "204",
        "dialing_code": "+1 204"
    },
    {
        "city": "Swan River",
        "area_code": "204",
        "dialing_code": "+1 204"
    },
    {
        "city": "The Pas",
        "area_code": "204",
        "dialing_code": "+1 204"
    },
    {
        "city": "Thompson",
        "area_code": "204",
        "dialing_code": "+1 204"
    },
    {
        "city": "Virden",
        "area_code": "204",
        "dialing_code": "+1 204"
    },
    {
        "city": "Winnipeg",
        "area_code": "204",
        "dialing_code": "+1 204"
    }
]