[
    {
        "city": "Gatineau",
        "area_code": "819",
        "dialing_code": "+1 819"
    },
    {
        "city": "Laval",
        "area_code": "450",
        "dialing_code": "+1 450"
    },
    {
        "city": "Levis",
        "area_code": "418",
        "dialing_code": "+1 418"
    },
    {
        "city": "Longueuil",
        "area_code": "450",
        "dialing_code": "+1 450"
    },
    {
        "city": "Lévis",
        "area_code": "418",
        "dialing_code": "+1 418"
    },
    {
        "city": "Montreal",
        "area_code": "438",
        "dialing_code": "+1 438"
    },
    {
        "city": "Montréal",
        "area_code": "438",
        "dialing_code": "+1 438"
    },
    {
        "city": "Quebec City",
        "area_code": "418",
        "dialing_code": "+1 418"
    },
    {
        "city": "Rimouski",
        "area_code": "418",
        "dialing_code": "+1 418"
    },
    {
        "city": "Sherbrooke",
        "area_code": "819",
        "dialing_code": "+1 819"
    },
    {
        "city": "Tracy",
        "area_code": "209",
        "dialing_code": "+1 209"
    },
    {
        "city": "Trois Rivieres",
        "area_code": "819",
        "dialing_code": "+1 819"
    },
    {
        "city": "Trois Rivières",
        "area_code": "819",
        "dialing_code": "+1 819"
    }
]