[
    {
        "city": "Broadview",
        "area_code": "306",
        "dialing_code": "+1 306"
    },
    {
        "city": "Buffalo Narrows",
        "area_code": "306",
        "dialing_code": "+1 306"
    },
    {
        "city": "Caronport",
        "area_code": "306",
        "dialing_code": "+1 306"
    },
    {
        "city": "Eastend",
        "area_code": "306",
        "dialing_code": "+1 306"
    },
    {
        "city": "Estevan",
        "area_code": "306",
        "dialing_code": "+1 306"
    },
    {
        "city": "Hudson Bay",
        "area_code": "306",
        "dialing_code": "+1 306"
    },
    {
        "city": "Kindersley",
        "area_code": "306",
        "dialing_code": "+1 306"
    },
    {
        "city": "La Ronge",
        "area_code": "306",
        "dialing_code": "+1 306"
    },
    {
        "city": "Langham",
        "area_code": "306",
        "dialing_code": "+1 306"
    },
    {
        "city": "Meadow Lake",
        "area_code": "306",
        "dialing_code": "+1 306"
    },
    {
        "city": "Moose Jaw",
        "area_code": "306",
        "dialing_code": "+1 306"
    },
    {
        "city": "North Battleford",
        "area_code": "306",
        "dialing_code": "+1 306"
    },
    {
        "city": "Prince Albert",
        "area_code": "306",
        "dialing_code": "+1 306"
    },
    {
        "city": "Regina",
        "area_code": "306",
        "dialing_code": "+1 306"
    },
    {
        "city": "Rockglen",
        "area_code": "306",
        "dialing_code": "+1 306"
    },
    {
        "city": "Rosetown",
        "area_code": "306",
        "dialing_code": "+1 306"
    },
    {
        "city": "Saskatoon",
        "area_code": "306",
        "dialing_code": "+1 306"
    },
    {
        "city": "Swift Current",
        "area_code": "306",
        "dialing_code": "+1 306"
    },
    {
        "city": "Warman",
        "area_code": "306",
        "dialing_code": "+1 306"
    },
    {
        "city": "Weyburn",
        "area_code": "306",
        "dialing_code": "+1 306"
    },
    {
        "city": "Wynyard",
        "area_code": "306",
        "dialing_code": "+1 306"
    },
    {
        "city": "Yorkton",
        "area_code": "306",
        "dialing_code": "+1 306"
    }
]